[{"OBJECT_NAME":"STARLINK-6316","OBJECT_ID":"2023-099H","EPOCH":"2026-03-09T22:00:01.999584","MEAN_MOTION":15.15306832,"ECCENTRICITY":0.00017661,"INCLINATION":43.0005,"RA_OF_ASC_NODE":247.22,"ARG_OF_PERICENTER":272.8769,"MEAN_ANOMALY":205.8226,"EPHEMERIS_TYPE":0,"CLASSIFICATION_TYPE":"U","NORAD_CAT_ID":57335,"ELEMENT_SET_NO":999,"REV_AT_EPOCH":572,"BSTAR":0.035575458,"MEAN_MOTION_DOT":0.00734675,"MEAN_MOTION_DDOT":0},{"OBJECT_NAME":"SITRO-AIS-57","OBJECT_ID":"2025-313J","EPOCH":"2026-03-09T21:19:15.458304","MEAN_MOTION":15.21278824,"ECCENTRICITY":0.00157719,"INCLINATION":97.3995,"RA_OF_ASC_NODE":145.0956,"ARG_OF_PERICENTER":356.0145,"MEAN_ANOMALY":4.0962,"EPHEMERIS_TYPE":0,"CLASSIFICATION_TYPE":"U","NORAD_CAT_ID":67256,"ELEMENT_SET_NO":999,"REV_AT_EPOCH":1084,"BSTAR":0.00055394677,"MEAN_MOTION_DOT":0.00012366,"MEAN_MOTION_DDOT":0}]
